{
  "type": "FeatureCollection",
  "features": [
    {
      "type": "Feature",
      "properties": {
        "norad_id": 65731,
        "name": "1998-067XK",
        "group": "stations",
        "lat": 11.197676427018672,
        "lon": 109.65571137158497,
        "alt_km": 366.17971183679583,
        "timestamp": "2025-12-19T22:41:51.128784+00:00",
        "meta_object_name": "1998-067XK",
        "meta_object_id": "1998-067XK",
        "meta_epoch": "2025-12-18T14:29:38.955840",
        "meta_mean_motion": 15.66848038,
        "meta_eccentricity": 0.0004791,
        "meta_inclination": 51.6292,
        "meta_ra_of_asc_node": 107.4546,
        "meta_arg_of_pericenter": 283.3796,
        "meta_mean_anomaly": 76.6665,
        "meta_ephemeris_type": 0,
        "meta_classification_type": "U",
        "meta_norad_cat_id": 65731,
        "meta_element_set_no": 999,
        "meta_rev_at_epoch": 1406,
        "meta_bstar": 0.00083587979,
        "meta_mean_motion_dot": 0.00090673,
        "meta_mean_motion_ddot": 0,
        "tle_line1": "1 65731U 98067XK  25352.60392310  .00090673  00000+0  83588-3 0  9992",
        "tle_line2": "2 65731  51.6292 107.4546 0004791 283.3796  76.6665 15.66848038 14061"
      },
      "geometry": {
        "type": "Point",
        "coordinates": [
          109.65571137158497,
          11.197676427018672
        ]
      }
    },
    {
      "type": "Feature",
      "properties": {
        "norad_id": 65732,
        "name": "RSP-03",
        "group": "stations",
        "lat": 46.41189716919811,
        "lon": 156.1117003644514,
        "alt_km": 353.89024623091154,
        "timestamp": "2025-12-19T22:41:51.128794+00:00",
        "meta_object_name": "RSP-03",
        "meta_object_id": "1998-067XL",
        "meta_epoch": "2025-12-19T10:11:34.022112",
        "meta_mean_motion": 15.70283101,
        "meta_eccentricity": 0.0005658,
        "meta_inclination": 51.6265,
        "meta_ra_of_asc_node": 102.4221,
        "meta_arg_of_pericenter": 294.5755,
        "meta_mean_anomaly": 65.4652,
        "meta_ephemeris_type": 0,
        "meta_classification_type": "U",
        "meta_norad_cat_id": 65732,
        "meta_element_set_no": 999,
        "meta_rev_at_epoch": 1421,
        "meta_bstar": 0.00084699,
        "meta_mean_motion_dot": 0.00106087,
        "meta_mean_motion_ddot": 0,
        "tle_line1": "1 65732U 98067XL  25353.42469933  .00106087  00000+0  84699-3 0  9991",
        "tle_line2": "2 65732  51.6265 102.4221 0005658 294.5755  65.4652 15.70283101 14217"
      },
      "geometry": {
        "type": "Point",
        "coordinates": [
          156.1117003644514,
          46.41189716919811
        ]
      }
    },
    {
      "type": "Feature",
      "properties": {
        "norad_id": 65733,
        "name": "GHS-01",
        "group": "stations",
        "lat": 12.830436801591397,
        "lon": -92.34131969494234,
        "alt_km": 340.6449899552845,
        "timestamp": "2025-12-19T22:41:51.128808+00:00",
        "meta_object_name": "GHS-01",
        "meta_object_id": "1998-067XM",
        "meta_epoch": "2025-12-19T17:26:50.754912",
        "meta_mean_motion": 15.77819432,
        "meta_eccentricity": 0.0008343,
        "meta_inclination": 51.6273,
        "meta_ra_of_asc_node": 99.1864,
        "meta_arg_of_pericenter": 325.0318,
        "meta_mean_anomaly": 35.0134,
        "meta_ephemeris_type": 0,
        "meta_classification_type": "U",
        "meta_norad_cat_id": 65733,
        "meta_element_set_no": 999,
        "meta_rev_at_epoch": 1428,
        "meta_bstar": 0.0010728,
        "meta_mean_motion_dot": 0.00188446,
        "meta_mean_motion_ddot": 0,
        "tle_line1": "1 65733U 98067XM  25353.72697633  .00188446  00000+0  10728-2 0  9995",
        "tle_line2": "2 65733  51.6273  99.1864 0008343 325.0318  35.0134 15.77819432 14285"
      },
      "geometry": {
        "type": "Point",
        "coordinates": [
          -92.34131969494234,
          12.830436801591397
        ]
      }
    },
    {
      "type": "Feature",
      "properties": {
        "norad_id": 65941,
        "name": "YOTSUBA-KULOVER",
        "group": "stations",
        "lat": -25.530002202937997,
        "lon": 81.49508280959517,
        "alt_km": 388.7364724890276,
        "timestamp": "2025-12-19T22:41:51.128818+00:00",
        "meta_object_name": "YOTSUBA-KULOVER",
        "meta_object_id": "1998-067XN",
        "meta_epoch": "2025-12-19T10:32:35.848320",
        "meta_mean_motion": 15.60329664,
        "meta_eccentricity": 0.00017537,
        "meta_inclination": 51.6289,
        "meta_ra_of_asc_node": 106.2819,
        "meta_arg_of_pericenter": 320.2615,
        "meta_mean_anomaly": 39.8249,
        "meta_ephemeris_type": 0,
        "meta_classification_type": "U",
        "meta_norad_cat_id": 65941,
        "meta_element_set_no": 999,
        "meta_rev_at_epoch": 1090,
        "meta_bstar": 0.0006131661,
        "meta_mean_motion_dot": 0.00050991,
        "meta_mean_motion_ddot": 0,
        "tle_line1": "1 65941U 98067XN  25353.43930380  .00050991  00000+0  61317-3 0  9997",
        "tle_line2": "2 65941  51.6289 106.2819 0001753 320.2615  39.8249 15.60329664 10907"
      },
      "geometry": {
        "type": "Point",
        "coordinates": [
          81.49508280959517,
          -25.530002202937997
        ]
      }
    },
    {
      "type": "Feature",
      "properties": {
        "norad_id": 65942,
        "name": "BOTAN",
        "group": "stations",
        "lat": 24.002422357726225,
        "lon": 123.50698622675057,
        "alt_km": 372.4666386771305,
        "timestamp": "2025-12-19T22:41:51.128829+00:00",
        "meta_object_name": "BOTAN",
        "meta_object_id": "1998-067XP",
        "meta_epoch": "2025-12-19T08:45:55.508256",
        "meta_mean_motion": 15.64228558,
        "meta_eccentricity": 0.00028928,
        "meta_inclination": 51.6281,
        "meta_ra_of_asc_node": 105.787,
        "meta_arg_of_pericenter": 295.6773,
        "meta_mean_anomaly": 64.3923,
        "meta_ephemeris_type": 0,
        "meta_classification_type": "U",
        "meta_norad_cat_id": 65942,
        "meta_element_set_no": 999,
        "meta_rev_at_epoch": 1090,
        "meta_bstar": 0.00085844533,
        "meta_mean_motion_dot": 0.00083736,
        "meta_mean_motion_ddot": 0,
        "tle_line1": "1 65942U 98067XP  25353.36522579  .00083736  00000+0  85845-3 0  9992",
        "tle_line2": "2 65942  51.6281 105.7870 0002892 295.6773  64.3923 15.64228558 10902"
      },
      "geometry": {
        "type": "Point",
        "coordinates": [
          123.50698622675057,
          24.002422357726225
        ]
      }
    },
    {
      "type": "Feature",
      "properties": {
        "norad_id": 65943,
        "name": "E-KAGAKU-1",
        "group": "stations",
        "lat": -25.88900746416031,
        "lon": 81.12073477056353,
        "alt_km": 389.5232526855634,
        "timestamp": "2025-12-19T22:41:51.128839+00:00",
        "meta_object_name": "E-KAGAKU-1",
        "meta_object_id": "1998-067XQ",
        "meta_epoch": "2025-12-18T08:24:49.666176",
        "meta_mean_motion": 15.60193795,
        "meta_eccentricity": 0.00013451,
        "meta_inclination": 51.6302,
        "meta_ra_of_asc_node": 111.7666,
        "meta_arg_of_pericenter": 249.8249,
        "meta_mean_anomaly": 110.26,
        "meta_ephemeris_type": 0,
        "meta_classification_type": "U",
        "meta_norad_cat_id": 65943,
        "meta_element_set_no": 999,
        "meta_rev_at_epoch": 1073,
        "meta_bstar": 0.00084619625,
        "meta_mean_motion_dot": 0.00070368,
        "meta_mean_motion_ddot": 0,
        "tle_line1": "1 65943U 98067XQ  25352.35057484  .00070368  00000+0  84620-3 0  9996",
        "tle_line2": "2 65943  51.6302 111.7666 0001345 249.8249 110.2600 15.60193795 10732"
      },
      "geometry": {
        "type": "Point",
        "coordinates": [
          81.12073477056353,
          -25.88900746416031
        ]
      }
    },
    {
      "type": "Feature",
      "properties": {
        "norad_id": 66052,
        "name": "HRC MONOBLOCK CAMERA",
        "group": "stations",
        "lat": 10.712391854646247,
        "lon": -83.05965864303664,
        "alt_km": 401.31859060560146,
        "timestamp": "2025-12-19T22:41:51.128850+00:00",
        "meta_object_name": "HRC MONOBLOCK CAMERA",
        "meta_object_id": "1998-067XR",
        "meta_epoch": "2025-12-18T22:50:37.822560",
        "meta_mean_motion": 15.54565744,
        "meta_eccentricity": 0.00026331,
        "meta_inclination": 51.6297,
        "meta_ra_of_asc_node": 110.5221,
        "meta_arg_of_pericenter": 211.9232,
        "meta_mean_anomaly": 148.16,
        "meta_ephemeris_type": 0,
        "meta_classification_type": "U",
        "meta_norad_cat_id": 66052,
        "meta_element_set_no": 999,
        "meta_rev_at_epoch": 980,
        "meta_bstar": 0.00046533518,
        "meta_mean_motion_dot": 0.00030942,
        "meta_mean_motion_ddot": 0,
        "tle_line1": "1 66052U 98067XR  25352.95182665  .00030942  00000+0  46534-3 0  9990",
        "tle_line2": "2 66052  51.6297 110.5221 0002633 211.9232 148.1600 15.54565744  9800"
      },
      "geometry": {
        "type": "Point",
        "coordinates": [
          -83.05965864303664,
          10.712391854646247
        ]
      }
    }
  ]
}